FENGYUN 1C DEB          
1 30403U 99025ADS 17345.95543373  .00000539  00000-0  35022-3 0  9996
2 30403  99.1845 340.7645 0094315 272.3897  86.6474 14.04905605556361
